STARLINK-30494          
1 57970U 23151G   26068.36049035 -.00001272  00000+0 -35691-4 0  9993
2 57970  43.0027 192.4566 0001155 241.5536 118.5200 15.28417441137406
STARLINK-30584          
1 58089U 23160Q   26068.40495327  .00001950  00000+0  80360-4 0  9993
2 58089  43.0011  79.3676 0000785 240.9900 119.0873 15.27583104132903
